ONEWEB-0661             
1 55821U 23029AB  23353.86896198  .00000188  00000+0  47382-3 0  9991
2 55821  87.8986 110.9413 0001217 122.8539 237.2708 13.14502368 40487
ONEWEB-0662             
1 55822U 23029AC  23353.82771467 -.00000196  00000+0 -56263-3 0  9998
2 55822  87.8985 110.9576 0001420 120.0617 240.0653 13.14501115 40547
ONEWEB-0663             
1 55823U 23029AD  23353.82843698  .00000042  00000+0  72434-4 0  9992
2 55823  87.9205  95.6843 0001586 123.9146 236.2138 13.20774077 41656
ONEWEB-0664             
1 55824U 23029AE  23354.35242118  .00000765  00000+0  18506-2 0  9992
2 55824  87.9206  95.5916 0001229 104.6859 255.4410 13.20772499 41730
ONEWEB-0665             
1 55825U 23029AF  23353.40908053  .00000915  00000+0  24326-2 0  9999
2 55825  87.8986 111.0079 0001835 114.5747 245.5574 13.14499975 39756
ONEWEB-0666             
1 55826U 23029AG  23354.34610845  .00000138  00000+0  30655-3 0  9993
2 55826  87.9206  95.5842 0001927  94.7459 265.3895 13.20774780 41732
ONEWEB-0667             
1 55827U 23029AH  23353.35495542  .00000836  00000+0  20232-2 0  9993
2 55827  87.9204  95.7156 0001303 114.9065 245.2204 13.20769546 40911
ONEWEB-0669             
1 55828U 23029AJ  23354.33506408  .00000139  00000+0  31113-3 0  9994
2 55828  87.9203  95.5590 0001523  74.2496 285.8805 13.20765042 41725
